ATLAS CENTAUR 2         
1 00694U 63047A   26071.30462157  .00002098  00000+0  24645-3 0  9995
2 00694  30.3512 181.0281 0547680 103.3290 262.8946 14.12077676131995
THOR AGENA D R/B        
1 00733U 64002A   26071.03400275  .00000262  00000+0  11070-3 0  9993
2 00733  99.1225  84.4992 0031996 251.0942 108.6771 14.34021690238632
SL-3 R/B                
1 00877U 64053B   26071.08709664  .00000256  00000+0  73756-4 0  9990
2 00877  65.0784 324.2091 0079843 291.4689  67.7910 14.61370331267144
SL-8 R/B                
1 02802U 67045B   26071.20470159  .00000454  00000+0  13320-3 0  9992
2 02802  74.0141 343.3930 0064348 349.0512  10.9240 14.45625540 89385
SL-8 R/B                
1 03230U 68040B   26071.10548969  .00002662  00000+0  19831-3 0  9994
2 03230  74.0315 308.7582 0023780 131.5684 228.7549 15.03274774 90377
OAO 2                   
1 03597U 68110A   26070.85269798  .00000285  00000+0  81768-4 0  9997
2 03597  34.9924 253.1465 0005993 221.2353 138.7885 14.47309203 19415
ISIS 1                  
1 03669U 69009A   26071.28652619  .00000173  00000+0  10671-3 0  9991
2 03669  88.4538 155.0254 1707826  83.9236 295.2848 11.30415280348824
SERT 2                  
1 04327U 70009A   26071.29000984  .00000015  00000+0  76573-4 0  9997
2 04327  99.2759  14.2413 0005139 149.4935 341.1361 13.58730157780247
SL-3 R/B                
1 05118U 71028B   26071.28407143  .00046138  00000+0  53745-3 0  9996
2 05118  81.2358  48.8243 0013244 274.0554  85.9185 15.61370365989070
ASTEX 1                 
1 05560U 71089A   26071.23636536  .00000601  00000+0  15263-3 0  9997
2 05560  92.7117 152.5831 0017778  78.3795 281.9406 14.50772952862670
SL-8 R/B                
1 05730U 71119B   26071.30134328  .00012604  00000+0  65616-3 0  9993
2 05730  73.8865 170.8361 0548397 136.9323 227.6135 14.37931739655866
OAO 3 (COPERNICUS)      
1 06153U 72065A   26071.28639307  .00000454  00000+0  97451-4 0  9991
2 06153  35.0054 282.5219 0006692 188.5676 338.0292 14.60000714846577
ATLAS CENTAUR R/B       
1 06155U 72065B   26070.92320156  .00001417  00000+0  19621-3 0  9994
2 06155  35.0013 292.6651 0033276  27.7558 332.4910 14.77693404841591
SL-8 R/B                
1 08459U 75112B   26071.28545431  .00000312  00000+0  11110-3 0  9992
2 08459  74.0632  14.1370 0014425 106.2723 254.0019 14.38205493632240
SL-3 R/B                
1 10114U 77057B   26071.24403037  .00014688  00000+0  30711-3 0  9993
2 10114  97.5780 243.2771 0006173 274.3370  85.7173 15.45574205668722
SEASAT 1                
1 10967U 78064A   26071.12465845  .00000256  00000+0  10995-3 0  9998
2 10967 108.0105 130.6094 0002363 285.2592  74.8292 14.46162302506866
SL-14 R/B               
1 11267U 79011B   26071.12913990  .00000606  00000+0  57271-4 0  9992
2 11267  82.5206  94.2555 0017289  53.0344 307.2456 14.91911165529144
