[{"OBJECT_NAME":"ATLAS CENTAUR 2","OBJECT_ID":"1963-047A","EPOCH":"2026-03-12T07:18:39.303648","MEAN_MOTION":14.12077676,"ECCENTRICITY":0.05476808,"INCLINATION":30.3512,"RA_OF_ASC_NODE":181.0281,"ARG_OF_PERICENTER":103.329,"MEAN_ANOMALY":262.8946,"EPHEMERIS_TYPE":0,"CLASSIFICATION_TYPE":"U","NORAD_CAT_ID":694,"ELEMENT_SET_NO":999,"REV_AT_EPOCH":13199,"BSTAR":0.00024645292,"MEAN_MOTION_DOT":2.098e-5,"MEAN_MOTION_DDOT":0},{"OBJECT_NAME":"THOR AGENA D R/B","OBJECT_ID":"1964-002A","EPOCH":"2026-03-12T00:48:57.837600","MEAN_MOTION":14.3402169,"ECCENTRICITY":0.00319961,"INCLINATION":99.1225,"RA_OF_ASC_NODE":84.4992,"ARG_OF_PERICENTER":251.0942,"MEAN_ANOMALY":108.6771,"EPHEMERIS_TYPE":0,"CLASSIFICATION_TYPE":"U","NORAD_CAT_ID":733,"ELEMENT_SET_NO":999,"REV_AT_EPOCH":23863,"BSTAR":0.0001107045,"MEAN_MOTION_DOT":2.62e-6,"MEAN_MOTION_DDOT":0},{"OBJECT_NAME":"SL-3 R/B","OBJECT_ID":"1964-053B","EPOCH":"2026-03-12T02:05:25.149696","MEAN_MOTION":14.61370331,"ECCENTRICITY":0.00798434,"INCLINATION":65.0784,"RA_OF_ASC_NODE":324.2091,"ARG_OF_PERICENTER":291.4689,"MEAN_ANOMALY":67.791,"EPHEMERIS_TYPE":0,"CLASSIFICATION_TYPE":"U","NORAD_CAT_ID":877,"ELEMENT_SET_NO":999,"REV_AT_EPOCH":26714,"BSTAR":7.3755807e-5,"MEAN_MOTION_DOT":2.56e-6,"MEAN_MOTION_DDOT":0},{"OBJECT_NAME":"SL-8 R/B","OBJECT_ID":"1967-045B","EPOCH":"2026-03-12T04:54:46.217376","MEAN_MOTION":14.4562554,"ECCENTRICITY":0.00643487,"INCLINATION":74.0141,"RA_OF_ASC_NODE":343.393,"ARG_OF_PERICENTER":349.0512,"MEAN_ANOMALY":10.924,"EPHEMERIS_TYPE":0,"CLASSIFICATION_TYPE":"U","NORAD_CAT_ID":2802,"ELEMENT_SET_NO":999,"REV_AT_EPOCH":8938,"BSTAR":0.00013320398,"MEAN_MOTION_DOT":4.54e-6,"MEAN_MOTION_DDOT":0},{"OBJECT_NAME":"SL-8 R/B","OBJECT_ID":"1968-040B","EPOCH":"2026-03-12T02:31:54.309216","MEAN_MOTION":15.03274774,"ECCENTRICITY":0.00237801,"INCLINATION":74.0315,"RA_OF_ASC_NODE":308.7582,"ARG_OF_PERICENTER":131.5684,"MEAN_ANOMALY":228.7549,"EPHEMERIS_TYPE":0,"CLASSIFICATION_TYPE":"U","NORAD_CAT_ID":3230,"ELEMENT_SET_NO":999,"REV_AT_EPOCH":9037,"BSTAR":0.00019831173,"MEAN_MOTION_DOT":2.662e-5,"MEAN_MOTION_DDOT":0},{"OBJECT_NAME":"OAO 2","OBJECT_ID":"1968-110A","EPOCH":"2026-03-11T20:27:53.105472","MEAN_MOTION":14.47309203,"ECCENTRICITY":0.00059934,"INCLINATION":34.9924,"RA_OF_ASC_NODE":253.1465,"ARG_OF_PERICENTER":221.2353,"MEAN_ANOMALY":138.7885,"EPHEMERIS_TYPE":0,"CLASSIFICATION_TYPE":"U","NORAD_CAT_ID":3597,"ELEMENT_SET_NO":999,"REV_AT_EPOCH":1941,"BSTAR":8.1767982e-5,"MEAN_MOTION_DOT":2.85e-6,"MEAN_MOTION_DDOT":0},{"OBJECT_NAME":"ISIS 1","OBJECT_ID":"1969-009A","EPOCH":"2026-03-12T06:52:35.862816","MEAN_MOTION":11.3041528,"ECCENTRICITY":0.17078262,"INCLINATION":88.4538,"RA_OF_ASC_NODE":155.0254,"ARG_OF_PERICENTER":83.9236,"MEAN_ANOMALY":295.2848,"EPHEMERIS_TYPE":0,"CLASSIFICATION_TYPE":"U","NORAD_CAT_ID":3669,"ELEMENT_SET_NO":999,"REV_AT_EPOCH":34882,"BSTAR":0.0001067097,"MEAN_MOTION_DOT":1.73e-6,"MEAN_MOTION_DDOT":0},{"OBJECT_NAME":"SERT 2","OBJECT_ID":"1970-009A","EPOCH":"2026-03-12T06:57:36.850176","MEAN_MOTION":13.58730157,"ECCENTRICITY":0.00051394,"INCLINATION":99.2759,"RA_OF_ASC_NODE":14.2413,"ARG_OF_PERICENTER":149.4935,"MEAN_ANOMALY":341.1361,"EPHEMERIS_TYPE":0,"CLASSIFICATION_TYPE":"U","NORAD_CAT_ID":4327,"ELEMENT_SET_NO":999,"REV_AT_EPOCH":78024,"BSTAR":7.6573302e-5,"MEAN_MOTION_DOT":1.5e-7,"MEAN_MOTION_DDOT":0},{"OBJECT_NAME":"SL-3 R/B","OBJECT_ID":"1971-028B","EPOCH":"2026-03-12T06:49:03.771552","MEAN_MOTION":15.61370365,"ECCENTRICITY":0.00132441,"INCLINATION":81.2358,"RA_OF_ASC_NODE":48.8243,"ARG_OF_PERICENTER":274.0554,"MEAN_ANOMALY":85.9185,"EPHEMERIS_TYPE":0,"CLASSIFICATION_TYPE":"U","NORAD_CAT_ID":5118,"ELEMENT_SET_NO":999,"REV_AT_EPOCH":98907,"BSTAR":0.00053744539,"MEAN_MOTION_DOT":0.00046138,"MEAN_MOTION_DDOT":0},{"OBJECT_NAME":"ASTEX 1","OBJECT_ID":"1971-089A","EPOCH":"2026-03-12T05:40:21.967104","MEAN_MOTION":14.50772952,"ECCENTRICITY":0.0017778,"INCLINATION":92.7117,"RA_OF_ASC_NODE":152.5831,"ARG_OF_PERICENTER":78.3795,"MEAN_ANOMALY":281.9406,"EPHEMERIS_TYPE":0,"CLASSIFICATION_TYPE":"U","NORAD_CAT_ID":5560,"ELEMENT_SET_NO":999,"REV_AT_EPOCH":86267,"BSTAR":0.00015263333,"MEAN_MOTION_DOT":6.01e-6,"MEAN_MOTION_DDOT":0},{"OBJECT_NAME":"SL-8 R/B","OBJECT_ID":"1971-119B","EPOCH":"2026-03-12T07:13:56.059392","MEAN_MOTION":14.37931739,"ECCENTRICITY":0.05483974,"INCLINATION":73.8865,"RA_OF_ASC_NODE":170.8361,"ARG_OF_PERICENTER":136.9323,"MEAN_ANOMALY":227.6135,"EPHEMERIS_TYPE":0,"CLASSIFICATION_TYPE":"U","NORAD_CAT_ID":5730,"ELEMENT_SET_NO":999,"REV_AT_EPOCH":65586,"BSTAR":0.00065616298,"MEAN_MOTION_DOT":0.00012604,"MEAN_MOTION_DDOT":0},{"OBJECT_NAME":"OAO 3 (COPERNICUS)","OBJECT_ID":"1972-065A","EPOCH":"2026-03-12T06:52:24.361248","MEAN_MOTION":14.60000714,"ECCENTRICITY":0.0006692,"INCLINATION":35.0054,"RA_OF_ASC_NODE":282.5219,"ARG_OF_PERICENTER":188.5676,"MEAN_ANOMALY":338.0292,"EPHEMERIS_TYPE":0,"CLASSIFICATION_TYPE":"U","NORAD_CAT_ID":6153,"ELEMENT_SET_NO":999,"REV_AT_EPOCH":84657,"BSTAR":9.7450663e-5,"MEAN_MOTION_DOT":4.54e-6,"MEAN_MOTION_DDOT":0},{"OBJECT_NAME":"ATLAS CENTAUR R/B","OBJECT_ID":"1972-065B","EPOCH":"2026-03-11T22:09:24.614784","MEAN_MOTION":14.77693404,"ECCENTRICITY":0.0033276,"INCLINATION":35.0013,"RA_OF_ASC_NODE":292.6651,"ARG_OF_PERICENTER":27.7558,"MEAN_ANOMALY":332.491,"EPHEMERIS_TYPE":0,"CLASSIFICATION_TYPE":"U","NORAD_CAT_ID":6155,"ELEMENT_SET_NO":999,"REV_AT_EPOCH":84159,"BSTAR":0.00019621,"MEAN_MOTION_DOT":1.417e-5,"MEAN_MOTION_DDOT":0},{"OBJECT_NAME":"SL-8 R/B","OBJECT_ID":"1975-112B","EPOCH":"2026-03-12T06:51:03.252384","MEAN_MOTION":14.38205493,"ECCENTRICITY":0.00144252,"INCLINATION":74.0632,"RA_OF_ASC_NODE":14.137,"ARG_OF_PERICENTER":106.2723,"MEAN_ANOMALY":254.0019,"EPHEMERIS_TYPE":0,"CLASSIFICATION_TYPE":"U","NORAD_CAT_ID":8459,"ELEMENT_SET_NO":999,"REV_AT_EPOCH":63224,"BSTAR":0.00011110231,"MEAN_MOTION_DOT":3.12e-6,"MEAN_MOTION_DDOT":0},{"OBJECT_NAME":"SL-3 R/B","OBJECT_ID":"1977-057B","EPOCH":"2026-03-12T05:51:24.223968","MEAN_MOTION":15.45574205,"ECCENTRICITY":0.00061737,"INCLINATION":97.578,"RA_OF_ASC_NODE":243.2771,"ARG_OF_PERICENTER":274.337,"MEAN_ANOMALY":85.7173,"EPHEMERIS_TYPE":0,"CLASSIFICATION_TYPE":"U","NORAD_CAT_ID":10114,"ELEMENT_SET_NO":999,"REV_AT_EPOCH":66872,"BSTAR":0.00030710573,"MEAN_MOTION_DOT":0.00014688,"MEAN_MOTION_DDOT":0},{"OBJECT_NAME":"SEASAT 1","OBJECT_ID":"1978-064A","EPOCH":"2026-03-12T02:59:30.490080","MEAN_MOTION":14.46162302,"ECCENTRICITY":0.00023634,"INCLINATION":108.0105,"RA_OF_ASC_NODE":130.6094,"ARG_OF_PERICENTER":285.2592,"MEAN_ANOMALY":74.8292,"EPHEMERIS_TYPE":0,"CLASSIFICATION_TYPE":"U","NORAD_CAT_ID":10967,"ELEMENT_SET_NO":999,"REV_AT_EPOCH":50686,"BSTAR":0.00010994757,"MEAN_MOTION_DOT":2.56e-6,"MEAN_MOTION_DDOT":0},{"OBJECT_NAME":"SL-14 R/B","OBJECT_ID":"1979-011B","EPOCH":"2026-03-12T03:05:57.687360","MEAN_MOTION":14.91911165,"ECCENTRICITY":0.00172897,"INCLINATION":82.5206,"RA_OF_ASC_NODE":94.2555,"ARG_OF_PERICENTER":53.0344,"MEAN_ANOMALY":307.2456,"EPHEMERIS_TYPE":0,"CLASSIFICATION_TYPE":"U","NORAD_CAT_ID":11267,"ELEMENT_SET_NO":999,"REV_AT_EPOCH":52914,"BSTAR":5.7271442e-5,"MEAN_MOTION_DOT":6.06e-6,"MEAN_MOTION_DDOT":0}]
